[{"OBJECT_NAME":"STARLINK-32748","OBJECT_ID":"2025-004P","EPOCH":"2026-03-09T10:44:28.955040","MEAN_MOTION":15.27597298,"ECCENTRICITY":0.00028738,"INCLINATION":43.0027,"RA_OF_ASC_NODE":221.0601,"ARG_OF_PERICENTER":281.0047,"MEAN_ANOMALY":79.0481,"EPHEMERIS_TYPE":0,"CLASSIFICATION_TYPE":"U","NORAD_CAT_ID":62524,"ELEMENT_SET_NO":999,"REV_AT_EPOCH":6642,"BSTAR":0.00089374469,"MEAN_MOTION_DOT":0.00024428,"MEAN_MOTION_DDOT":0},{"OBJECT_NAME":"JINJUSAT-1B","OBJECT_ID":"2025-052A","EPOCH":"2026-03-09T15:55:38.242848","MEAN_MOTION":15.30194857,"ECCENTRICITY":0.00055504,"INCLINATION":97.4113,"RA_OF_ASC_NODE":325.4613,"ARG_OF_PERICENTER":82.193,"MEAN_ANOMALY":277.9941,"EPHEMERIS_TYPE":0,"CLASSIFICATION_TYPE":"U","NORAD_CAT_ID":63210,"ELEMENT_SET_NO":999,"REV_AT_EPOCH":5486,"BSTAR":0.00068430401,"MEAN_MOTION_DOT":0.00019955,"MEAN_MOTION_DDOT":0}]
