STARLINK-32748          
1 62524U 25004P   26068.44755735  .00024428  00000+0  89374-3 0  9995
2 62524  43.0027 221.0601 0002873 281.0047  79.0481 15.27597298 66423
JINJUSAT-1B             
1 63210U 25052A   26068.66363707  .00019955  00000+0  68430-3 0  9998
2 63210  97.4113 325.4613 0005550  82.1930 277.9941 15.30194857 54866
